QIANFAN-103             
1 66045U 25233N   26062.49503906  .00000040  00000+0  43690-4 0  9997
2 66045  88.9933  53.8770 0001883  91.3771 268.7596 13.51006064 18919
QIANFAN-104             
1 66046U 25233P   26062.49894497  .00000034  00000+0  33421-4 0  9990
2 66046  88.9937  53.7739 0002082  86.1209 274.0180 13.51010107 18965
QIANFAN-105             
1 66047U 25233Q   26062.50706780  .00000040  00000+0  43132-4 0  9997
2 66047  88.9950  53.6021 0002009  92.6062 267.5319 13.50981425 19075
QIANFAN-106             
1 66048U 25233R   26062.50321942  .00000027  00000+0  23077-4 0  9992
2 66048  88.9919  53.8486 0002379  87.0113 273.1310 13.51005070 18924
QIANFAN-107             
1 66049U 25233S   26062.43741247  .00000036  00000+0  36677-4 0  9999
2 66049  88.9935  53.8709 0001906  90.4763 269.6607 13.51003097 18910
QIANFAN-108             
1 66050U 25233T   26062.44151939  .00000037  00000+0  39044-4 0  9997
2 66050  88.9928  53.8658 0002332  86.5989 273.5429 13.51004597 18919
