[{"OBJECT_NAME":"QIANFAN-103","OBJECT_ID":"2025-233N","EPOCH":"2026-03-03T11:52:51.374784","MEAN_MOTION":13.51006064,"ECCENTRICITY":0.0001883,"INCLINATION":88.9933,"RA_OF_ASC_NODE":53.877,"ARG_OF_PERICENTER":91.3771,"MEAN_ANOMALY":268.7596,"EPHEMERIS_TYPE":0,"CLASSIFICATION_TYPE":"U","NORAD_CAT_ID":66045,"ELEMENT_SET_NO":999,"REV_AT_EPOCH":1891,"BSTAR":4.369e-5,"MEAN_MOTION_DOT":4.0e-7,"MEAN_MOTION_DDOT":0},{"OBJECT_NAME":"QIANFAN-104","OBJECT_ID":"2025-233P","EPOCH":"2026-03-03T11:58:28.845408","MEAN_MOTION":13.51010107,"ECCENTRICITY":0.0002082,"INCLINATION":88.9937,"RA_OF_ASC_NODE":53.7739,"ARG_OF_PERICENTER":86.1209,"MEAN_ANOMALY":274.018,"EPHEMERIS_TYPE":0,"CLASSIFICATION_TYPE":"U","NORAD_CAT_ID":66046,"ELEMENT_SET_NO":999,"REV_AT_EPOCH":1896,"BSTAR":3.3421e-5,"MEAN_MOTION_DOT":3.4e-7,"MEAN_MOTION_DDOT":0},{"OBJECT_NAME":"QIANFAN-105","OBJECT_ID":"2025-233Q","EPOCH":"2026-03-03T12:10:10.657920","MEAN_MOTION":13.50981425,"ECCENTRICITY":0.0002009,"INCLINATION":88.995,"RA_OF_ASC_NODE":53.6021,"ARG_OF_PERICENTER":92.6062,"MEAN_ANOMALY":267.5319,"EPHEMERIS_TYPE":0,"CLASSIFICATION_TYPE":"U","NORAD_CAT_ID":66047,"ELEMENT_SET_NO":999,"REV_AT_EPOCH":1907,"BSTAR":4.3132e-5,"MEAN_MOTION_DOT":4.0e-7,"MEAN_MOTION_DDOT":0},{"OBJECT_NAME":"QIANFAN-106","OBJECT_ID":"2025-233R","EPOCH":"2026-03-03T12:04:38.157888","MEAN_MOTION":13.5100507,"ECCENTRICITY":0.0002379,"INCLINATION":88.9919,"RA_OF_ASC_NODE":53.8486,"ARG_OF_PERICENTER":87.0113,"MEAN_ANOMALY":273.131,"EPHEMERIS_TYPE":0,"CLASSIFICATION_TYPE":"U","NORAD_CAT_ID":66048,"ELEMENT_SET_NO":999,"REV_AT_EPOCH":1892,"BSTAR":2.3077e-5,"MEAN_MOTION_DOT":2.7e-7,"MEAN_MOTION_DDOT":0},{"OBJECT_NAME":"QIANFAN-107","OBJECT_ID":"2025-233S","EPOCH":"2026-03-03T10:29:52.437408","MEAN_MOTION":13.51003097,"ECCENTRICITY":0.0001906,"INCLINATION":88.9935,"RA_OF_ASC_NODE":53.8709,"ARG_OF_PERICENTER":90.4763,"MEAN_ANOMALY":269.6607,"EPHEMERIS_TYPE":0,"CLASSIFICATION_TYPE":"U","NORAD_CAT_ID":66049,"ELEMENT_SET_NO":999,"REV_AT_EPOCH":1891,"BSTAR":3.6677e-5,"MEAN_MOTION_DOT":3.6e-7,"MEAN_MOTION_DDOT":0},{"OBJECT_NAME":"QIANFAN-108","OBJECT_ID":"2025-233T","EPOCH":"2026-03-03T10:35:47.275296","MEAN_MOTION":13.51004597,"ECCENTRICITY":0.0002332,"INCLINATION":88.9928,"RA_OF_ASC_NODE":53.8658,"ARG_OF_PERICENTER":86.5989,"MEAN_ANOMALY":273.5429,"EPHEMERIS_TYPE":0,"CLASSIFICATION_TYPE":"U","NORAD_CAT_ID":66050,"ELEMENT_SET_NO":999,"REV_AT_EPOCH":1891,"BSTAR":3.9044e-5,"MEAN_MOTION_DOT":3.7e-7,"MEAN_MOTION_DDOT":0}]
